[{"OBJECT_NAME":"STARLINK-32194","OBJECT_ID":"2024-133Q","EPOCH":"2025-10-27T23:49:48.548064","MEAN_MOTION":15.30189922,"ECCENTRICITY":0.00011819,"INCLINATION":53.1598,"RA_OF_ASC_NODE":193.4417,"ARG_OF_PERICENTER":87.1527,"MEAN_ANOMALY":272.9609,"EPHEMERIS_TYPE":0,"CLASSIFICATION_TYPE":"U","NORAD_CAT_ID":60315,"ELEMENT_SET_NO":999,"REV_AT_EPOCH":7132,"BSTAR":6.0469114e-5,"MEAN_MOTION_DOT":1.432e-5,"MEAN_MOTION_DDOT":0},{"OBJECT_NAME":"STARLINK-32192","OBJECT_ID":"2024-133R","EPOCH":"2025-10-28T09:54:59.581440","MEAN_MOTION":15.30190818,"ECCENTRICITY":0.00012778,"INCLINATION":53.1599,"RA_OF_ASC_NODE":191.0893,"ARG_OF_PERICENTER":89.4486,"MEAN_ANOMALY":270.6661,"EPHEMERIS_TYPE":0,"CLASSIFICATION_TYPE":"U","NORAD_CAT_ID":60316,"ELEMENT_SET_NO":999,"REV_AT_EPOCH":7148,"BSTAR":2.2901196e-5,"MEAN_MOTION_DOT":3.19e-6,"MEAN_MOTION_DDOT":0},{"OBJECT_NAME":"STARLINK-32189","OBJECT_ID":"2024-133S","EPOCH":"2025-10-27T23:46:46.069536","MEAN_MOTION":15.30202132,"ECCENTRICITY":0.00012857,"INCLINATION":53.1592,"RA_OF_ASC_NODE":193.4269,"ARG_OF_PERICENTER":89.444,"MEAN_ANOMALY":270.6709,"EPHEMERIS_TYPE":0,"CLASSIFICATION_TYPE":"U","NORAD_CAT_ID":60317,"ELEMENT_SET_NO":999,"REV_AT_EPOCH":7141,"BSTAR":-3.9335881e-5,"MEAN_MOTION_DOT":-1.524e-5,"MEAN_MOTION_DDOT":0},{"OBJECT_NAME":"STARLINK-32190","OBJECT_ID":"2024-133T","EPOCH":"2025-10-27T23:33:05.479488","MEAN_MOTION":15.30189464,"ECCENTRICITY":0.00011604,"INCLINATION":53.1589,"RA_OF_ASC_NODE":193.3634,"ARG_OF_PERICENTER":79.6427,"MEAN_ANOMALY":280.4704,"EPHEMERIS_TYPE":0,"CLASSIFICATION_TYPE":"U","NORAD_CAT_ID":60318,"ELEMENT_SET_NO":999,"REV_AT_EPOCH":7132,"BSTAR":4.2535159e-5,"MEAN_MOTION_DOT":9.0e-6,"MEAN_MOTION_DDOT":0},{"OBJECT_NAME":"STARLINK-32182","OBJECT_ID":"2024-133U","EPOCH":"2025-10-27T23:48:17.595648","MEAN_MOTION":15.30192565,"ECCENTRICITY":0.00011851,"INCLINATION":53.1597,"RA_OF_ASC_NODE":193.4366,"ARG_OF_PERICENTER":90.6996,"MEAN_ANOMALY":269.414,"EPHEMERIS_TYPE":0,"CLASSIFICATION_TYPE":"U","NORAD_CAT_ID":60319,"ELEMENT_SET_NO":999,"REV_AT_EPOCH":7132,"BSTAR":-2.4753633e-5,"MEAN_MOTION_DOT":-1.092e-5,"MEAN_MOTION_DDOT":0},{"OBJECT_NAME":"STARLINK-32199","OBJECT_ID":"2024-133V","EPOCH":"2025-10-27T23:37:38.997696","MEAN_MOTION":15.30193491,"ECCENTRICITY":0.00011853,"INCLINATION":53.1589,"RA_OF_ASC_NODE":193.3849,"ARG_OF_PERICENTER":97.4512,"MEAN_ANOMALY":262.6623,"EPHEMERIS_TYPE":0,"CLASSIFICATION_TYPE":"U","NORAD_CAT_ID":60320,"ELEMENT_SET_NO":999,"REV_AT_EPOCH":7132,"BSTAR":5.1297586e-5,"MEAN_MOTION_DOT":1.16e-5,"MEAN_MOTION_DDOT":0},{"OBJECT_NAME":"STARLINK-32198","OBJECT_ID":"2024-133W","EPOCH":"2025-10-27T23:51:19.861632","MEAN_MOTION":15.30189287,"ECCENTRICITY":0.00010388,"INCLINATION":53.1584,"RA_OF_ASC_NODE":193.4443,"ARG_OF_PERICENTER":74.3088,"MEAN_ANOMALY":285.8027,"EPHEMERIS_TYPE":0,"CLASSIFICATION_TYPE":"U","NORAD_CAT_ID":60321,"ELEMENT_SET_NO":999,"REV_AT_EPOCH":7141,"BSTAR":1.2162795e-5,"MEAN_MOTION_DOT":1.0e-8,"MEAN_MOTION_DDOT":0},{"OBJECT_NAME":"STARLINK-31745","OBJECT_ID":"2024-136A","EPOCH":"2025-10-28T12:22:44.115168","MEAN_MOTION":15.30194424,"ECCENTRICITY":0.00011614,"INCLINATION":53.1605,"RA_OF_ASC_NODE":329.9242,"ARG_OF_PERICENTER":96.0477,"MEAN_ANOMALY":264.0656,"EPHEMERIS_TYPE":0,"CLASSIFICATION_TYPE":"U","NORAD_CAT_ID":60329,"ELEMENT_SET_NO":999,"REV_AT_EPOCH":7063,"BSTAR":3.4175983e-5,"MEAN_MOTION_DOT":6.53e-6,"MEAN_MOTION_DDOT":0},{"OBJECT_NAME":"STARLINK-32153","OBJECT_ID":"2024-136B","EPOCH":"2025-10-28T12:21:14.125248","MEAN_MOTION":15.30187159,"ECCENTRICITY":0.00012297,"INCLINATION":53.1606,"RA_OF_ASC_NODE":329.9158,"ARG_OF_PERICENTER":80.7347,"MEAN_ANOMALY":279.3793,"EPHEMERIS_TYPE":0,"CLASSIFICATION_TYPE":"U","NORAD_CAT_ID":60330,"ELEMENT_SET_NO":999,"REV_AT_EPOCH":6942,"BSTAR":2.9115069e-5,"MEAN_MOTION_DOT":5.03e-6,"MEAN_MOTION_DDOT":0},{"OBJECT_NAME":"STARLINK-32203","OBJECT_ID":"2024-136C","EPOCH":"2025-10-28T08:21:34.391808","MEAN_MOTION":15.30194084,"ECCENTRICITY":0.00012317,"INCLINATION":53.1606,"RA_OF_ASC_NODE":320.3571,"ARG_OF_PERICENTER":75.809,"MEAN_ANOMALY":284.3048,"EPHEMERIS_TYPE":0,"CLASSIFICATION_TYPE":"U","NORAD_CAT_ID":60331,"ELEMENT_SET_NO":999,"REV_AT_EPOCH":6954,"BSTAR":1.739028e-5,"MEAN_MOTION_DOT":1.56e-6,"MEAN_MOTION_DDOT":0},{"OBJECT_NAME":"STARLINK-32171","OBJECT_ID":"2024-136D","EPOCH":"2025-10-28T09:35:44.662272","MEAN_MOTION":15.30191348,"ECCENTRICITY":0.00013242,"INCLINATION":53.161,"RA_OF_ASC_NODE":329.9203,"ARG_OF_PERICENTER":91.1665,"MEAN_ANOMALY":268.9487,"EPHEMERIS_TYPE":0,"CLASSIFICATION_TYPE":"U","NORAD_CAT_ID":60332,"ELEMENT_SET_NO":999,"REV_AT_EPOCH":6941,"BSTAR":3.7762368e-5,"MEAN_MOTION_DOT":7.59e-6,"MEAN_MOTION_DDOT":0},{"OBJECT_NAME":"STARLINK-32133","OBJECT_ID":"2024-136E","EPOCH":"2025-10-28T09:03:59.573376","MEAN_MOTION":15.30186618,"ECCENTRICITY":0.00016849,"INCLINATION":53.1616,"RA_OF_ASC_NODE":330.4872,"ARG_OF_PERICENTER":95.1245,"MEAN_ANOMALY":264.9948,"EPHEMERIS_TYPE":0,"CLASSIFICATION_TYPE":"U","NORAD_CAT_ID":60333,"ELEMENT_SET_NO":999,"REV_AT_EPOCH":6940,"BSTAR":0.00025088461,"MEAN_MOTION_DOT":7.075e-5,"MEAN_MOTION_DDOT":0},{"OBJECT_NAME":"STARLINK-32132","OBJECT_ID":"2024-136F","EPOCH":"2025-10-28T08:54:52.321824","MEAN_MOTION":15.3019437,"ECCENTRICITY":0.0001211,"INCLINATION":53.1603,"RA_OF_ASC_NODE":330.444,"ARG_OF_PERICENTER":72.3263,"MEAN_ANOMALY":287.787,"EPHEMERIS_TYPE":0,"CLASSIFICATION_TYPE":"U","NORAD_CAT_ID":60334,"ELEMENT_SET_NO":999,"REV_AT_EPOCH":6940,"BSTAR":0.00018631023,"MEAN_MOTION_DOT":5.162e-5,"MEAN_MOTION_DDOT":0},{"OBJECT_NAME":"STARLINK-32168","OBJECT_ID":"2024-136G","EPOCH":"2025-10-28T08:50:19.180320","MEAN_MOTION":15.30191136,"ECCENTRICITY":0.00011985,"INCLINATION":53.1599,"RA_OF_ASC_NODE":330.4232,"ARG_OF_PERICENTER":66.6586,"MEAN_ANOMALY":293.4541,"EPHEMERIS_TYPE":0,"CLASSIFICATION_TYPE":"U","NORAD_CAT_ID":60335,"ELEMENT_SET_NO":999,"REV_AT_EPOCH":6940,"BSTAR":9.9928627e-5,"MEAN_MOTION_DOT":2.601e-5,"MEAN_MOTION_DDOT":0},{"OBJECT_NAME":"STARLINK-32079","OBJECT_ID":"2024-136H","EPOCH":"2025-10-28T08:45:46.065600","MEAN_MOTION":15.30188911,"ECCENTRICITY":0.00013533,"INCLINATION":53.1613,"RA_OF_ASC_NODE":330.402,"ARG_OF_PERICENTER":84.6151,"MEAN_ANOMALY":275.5004,"EPHEMERIS_TYPE":0,"CLASSIFICATION_TYPE":"U","NORAD_CAT_ID":60336,"ELEMENT_SET_NO":999,"REV_AT_EPOCH":6940,"BSTAR":7.4611929e-5,"MEAN_MOTION_DOT":1.85e-5,"MEAN_MOTION_DDOT":0},{"OBJECT_NAME":"STARLINK-32078","OBJECT_ID":"2024-136K","EPOCH":"2025-10-28T08:39:41.689152","MEAN_MOTION":15.30194996,"ECCENTRICITY":0.00013411,"INCLINATION":53.1613,"RA_OF_ASC_NODE":330.3754,"ARG_OF_PERICENTER":85.1289,"MEAN_ANOMALY":274.9865,"EPHEMERIS_TYPE":0,"CLASSIFICATION_TYPE":"U","NORAD_CAT_ID":60338,"ELEMENT_SET_NO":999,"REV_AT_EPOCH":6940,"BSTAR":0.000126947,"MEAN_MOTION_DOT":3.402e-5,"MEAN_MOTION_DDOT":0},{"OBJECT_NAME":"STARLINK-32175","OBJECT_ID":"2024-136L","EPOCH":"2025-10-28T08:36:38.484864","MEAN_MOTION":15.30189808,"ECCENTRICITY":0.00012876,"INCLINATION":53.1614,"RA_OF_ASC_NODE":330.3625,"ARG_OF_PERICENTER":82.8052,"MEAN_ANOMALY":277.3096,"EPHEMERIS_TYPE":0,"CLASSIFICATION_TYPE":"U","NORAD_CAT_ID":60339,"ELEMENT_SET_NO":999,"REV_AT_EPOCH":6940,"BSTAR":1.9322249e-5,"MEAN_MOTION_DOT":2.13e-6,"MEAN_MOTION_DDOT":0},{"OBJECT_NAME":"STARLINK-32176","OBJECT_ID":"2024-136M","EPOCH":"2025-10-28T08:32:06.025920","MEAN_MOTION":15.30178667,"ECCENTRICITY":0.00013508,"INCLINATION":53.1612,"RA_OF_ASC_NODE":330.3426,"ARG_OF_PERICENTER":87.8309,"MEAN_ANOMALY":272.2846,"EPHEMERIS_TYPE":0,"CLASSIFICATION_TYPE":"U","NORAD_CAT_ID":60340,"ELEMENT_SET_NO":999,"REV_AT_EPOCH":7057,"BSTAR":4.731346e-6,"MEAN_MOTION_DOT":-2.19e-6,"MEAN_MOTION_DDOT":0},{"OBJECT_NAME":"STARLINK-32185","OBJECT_ID":"2024-136N","EPOCH":"2025-10-28T08:21:26.978688","MEAN_MOTION":15.30202272,"ECCENTRICITY":0.0001768,"INCLINATION":53.1606,"RA_OF_ASC_NODE":330.2947,"ARG_OF_PERICENTER":109.8823,"MEAN_ANOMALY":250.2369,"EPHEMERIS_TYPE":0,"CLASSIFICATION_TYPE":"U","NORAD_CAT_ID":60341,"ELEMENT_SET_NO":999,"REV_AT_EPOCH":6940,"BSTAR":-0.00021508874,"MEAN_MOTION_DOT":-6.725e-5,"MEAN_MOTION_DDOT":0},{"OBJECT_NAME":"STARLINK-32221","OBJECT_ID":"2024-136P","EPOCH":"2025-10-28T08:26:00.428640","MEAN_MOTION":15.30187894,"ECCENTRICITY":0.00013403,"INCLINATION":53.1613,"RA_OF_ASC_NODE":330.3194,"ARG_OF_PERICENTER":78.6693,"MEAN_ANOMALY":281.4458,"EPHEMERIS_TYPE":0,"CLASSIFICATION_TYPE":"U","NORAD_CAT_ID":60342,"ELEMENT_SET_NO":999,"REV_AT_EPOCH":6940,"BSTAR":3.5026437e-5,"MEAN_MOTION_DOT":6.78e-6,"MEAN_MOTION_DDOT":0},{"OBJECT_NAME":"STARLINK-32083","OBJECT_ID":"2024-136Q","EPOCH":"2025-10-28T08:27:30.676896","MEAN_MOTION":15.30201927,"ECCENTRICITY":0.00014693,"INCLINATION":53.1614,"RA_OF_ASC_NODE":330.2877,"ARG_OF_PERICENTER":87.4095,"MEAN_ANOMALY":272.7074,"EPHEMERIS_TYPE":0,"CLASSIFICATION_TYPE":"U","NORAD_CAT_ID":60343,"ELEMENT_SET_NO":999,"REV_AT_EPOCH":6940,"BSTAR":7.4929989e-5,"MEAN_MOTION_DOT":1.861e-5,"MEAN_MOTION_DDOT":0},{"OBJECT_NAME":"STARLINK-32077","OBJECT_ID":"2024-136R","EPOCH":"2025-10-28T09:50:56.432832","MEAN_MOTION":15.30188688,"ECCENTRICITY":0.00010998,"INCLINATION":53.1612,"RA_OF_ASC_NODE":329.9715,"ARG_OF_PERICENTER":87.6397,"MEAN_ANOMALY":272.4729,"EPHEMERIS_TYPE":0,"CLASSIFICATION_TYPE":"U","NORAD_CAT_ID":60344,"ELEMENT_SET_NO":999,"REV_AT_EPOCH":6941,"BSTAR":4.4268333e-5,"MEAN_MOTION_DOT":9.52e-6,"MEAN_MOTION_DDOT":0},{"OBJECT_NAME":"STARLINK-32075","OBJECT_ID":"2024-136S","EPOCH":"2025-10-28T09:44:51.612288","MEAN_MOTION":15.3019103,"ECCENTRICITY":0.00012956,"INCLINATION":53.1606,"RA_OF_ASC_NODE":329.9459,"ARG_OF_PERICENTER":101.7962,"MEAN_ANOMALY":258.3184,"EPHEMERIS_TYPE":0,"CLASSIFICATION_TYPE":"U","NORAD_CAT_ID":60345,"ELEMENT_SET_NO":999,"REV_AT_EPOCH":6941,"BSTAR":1.0210238e-5,"MEAN_MOTION_DOT":-5.7e-7,"MEAN_MOTION_DDOT":0}]
